{"fetched_at":"2026-07-06T08:47:19.709Z","source":"https://celestrak.org/NORAD/elements/gp.php?NAME=SENTINEL&FORMAT=JSON","constellation":"sentinel-1","records":[{"OBJECT_NAME":"SENTINEL-1A","OBJECT_ID":"2014-016A","EPOCH":"2026-07-05T14:34:46.355808","CLASSIFICATION_TYPE":"U","MEAN_MOTION":14.59199489,"ECCENTRICITY":0.00013681,"INCLINATION":98.1779,"RA_OF_ASC_NODE":193.8713,"ARG_OF_PERICENTER":85.1479,"MEAN_ANOMALY":274.9877,"EPHEMERIS_TYPE":0,"NORAD_CAT_ID":39634,"ELEMENT_SET_NO":999,"REV_AT_EPOCH":65270,"BSTAR":-0.000014999624,"MEAN_MOTION_DOT":-0.00000116,"MEAN_MOTION_DDOT":0},{"OBJECT_NAME":"SENTINEL-1C","OBJECT_ID":"2024-235A","EPOCH":"2026-07-05T13:52:45.158880","CLASSIFICATION_TYPE":"U","MEAN_MOTION":14.59197681,"ECCENTRICITY":0.00013093,"INCLINATION":98.1823,"RA_OF_ASC_NODE":193.6241,"ARG_OF_PERICENTER":90.6127,"MEAN_ANOMALY":269.5223,"EPHEMERIS_TYPE":0,"NORAD_CAT_ID":62261,"ELEMENT_SET_NO":999,"REV_AT_EPOCH":8409,"BSTAR":-0.000011759681,"MEAN_MOTION_DOT":-0.00000101,"MEAN_MOTION_DDOT":0},{"OBJECT_NAME":"SENTINEL-1D","OBJECT_ID":"2025-251A","EPOCH":"2026-07-04T23:53:39.433920","CLASSIFICATION_TYPE":"U","MEAN_MOTION":14.59197335,"ECCENTRICITY":0.0001306,"INCLINATION":98.1835,"RA_OF_ASC_NODE":193.1045,"ARG_OF_PERICENTER":90.7095,"MEAN_ANOMALY":269.4254,"EPHEMERIS_TYPE":0,"NORAD_CAT_ID":66315,"ELEMENT_SET_NO":999,"REV_AT_EPOCH":3532,"BSTAR":-0.000015564,"MEAN_MOTION_DOT":-0.00000119,"MEAN_MOTION_DDOT":0}]}
